[{"OBJECT_NAME":"OBJECT A","OBJECT_ID":"2025-284A","EPOCH":"2026-03-09T22:32:24.508320","MEAN_MOTION":13.97315283,"ECCENTRICITY":0.00115689,"INCLINATION":80.4065,"RA_OF_ASC_NODE":32.9065,"ARG_OF_PERICENTER":141.4365,"MEAN_ANOMALY":218.7625,"EPHEMERIS_TYPE":0,"CLASSIFICATION_TYPE":"U","NORAD_CAT_ID":66913,"ELEMENT_SET_NO":999,"REV_AT_EPOCH":1362,"BSTAR":0.00014617257,"MEAN_MOTION_DOT":2.14e-6,"MEAN_MOTION_DDOT":0},{"OBJECT_NAME":"UNKNOWN","OBJECT_ID":"","EPOCH":"2026-03-06T12:28:08.817600","MEAN_MOTION":13.71322104,"ECCENTRICITY":0.0150241,"INCLINATION":66.7351,"RA_OF_ASC_NODE":260.2039,"ARG_OF_PERICENTER":104.8481,"MEAN_ANOMALY":256.9283,"EPHEMERIS_TYPE":0,"CLASSIFICATION_TYPE":"U","NORAD_CAT_ID":87681,"ELEMENT_SET_NO":999,"REV_AT_EPOCH":61332,"BSTAR":0.0014288,"MEAN_MOTION_DOT":1.318e-5,"MEAN_MOTION_DDOT":0}]
